[{"OBJECT_NAME":"STARLINK-32259","OBJECT_ID":"2024-155P","EPOCH":"2026-03-09T11:05:03.865056","MEAN_MOTION":15.30184006,"ECCENTRICITY":0.00011835,"INCLINATION":53.1608,"RA_OF_ASC_NODE":130.8932,"ARG_OF_PERICENTER":80.5241,"MEAN_ANOMALY":279.5894,"EPHEMERIS_TYPE":0,"CLASSIFICATION_TYPE":"U","NORAD_CAT_ID":60937,"ELEMENT_SET_NO":999,"REV_AT_EPOCH":8630,"BSTAR":-7.598145e-6,"MEAN_MOTION_DOT":-5.84e-6,"MEAN_MOTION_DDOT":0},{"OBJECT_NAME":"KUIPER-00213","OBJECT_ID":"2026-030P","EPOCH":"2026-03-09T22:00:01.999584","MEAN_MOTION":15.32626943,"ECCENTRICITY":0.00152813,"INCLINATION":51.8816,"RA_OF_ASC_NODE":218.5142,"ARG_OF_PERICENTER":64.2462,"MEAN_ANOMALY":206.8369,"EPHEMERIS_TYPE":0,"CLASSIFICATION_TYPE":"U","NORAD_CAT_ID":67777,"ELEMENT_SET_NO":999,"REV_AT_EPOCH":502,"BSTAR":0.0016072376,"MEAN_MOTION_DOT":0.00051551,"MEAN_MOTION_DDOT":0}]
